#aV2008  4 17  0  0   .00000000      96 DD+AD WGS84 FIT  NGA
## 1475 345600.00000000   900.00000000 54573  .0000000000000
+   31     2  3  4  5  6  7  8  9 10 11 12 13 14 15 16 17 18
+         19 20 21 22 23 24 25 26 27 28 29 30 31 32  0  0  0
+          0  0  0  0  0  0  0  0  0  0  0  0  0  0  0  0  0
+          0  0  0  0  0  0  0  0  0  0  0  0  0  0  0  0  0
+          0  0  0  0  0  0  0  0  0  0  0  0  0  0  0  0  0
++         0  0  0  0  0  0  0  0  0  0  0  0  0  0  0  0  0
++         0  0  0  0  0  0  0  0  0  0  0  0  0  0  0  0  0
++         0  0  0  0  0  0  0  0  0  0  0  0  0  0  0  0  0
++         0  0  0  0  0  0  0  0  0  0  0  0  0  0  0  0  0
++         0  0  0  0  0  0  0  0  0  0  0  0  0  0  0  0  0
%c cc cc ccc ccc cccc cccc cccc cccc ccccc ccccc ccccc ccccc
%c cc cc ccc ccc cccc cccc cccc cccc ccccc ccccc ccccc ccccc
%f  0.0000000  0.000000000  0.00000000000  0.000000000000000
%f  0.0000000  0.000000000  0.00000000000  0.000000000000000
%i    0    0    0    0      0      0      0      0         0
%i    0    0    0    0      0      0      0      0         0
/*      NGA, ST. LOUIS,MO.                                  
/*   EPHEMERIS COMPUTED FROM  3 DAYS OF DATA                
/* CCCCCCCCCCCCCCCCCCCCCCCCCCCCCCCCCCCCCCCCCCCCCCCCCCCCCCCCC
/* CCCCCCCCCCCCCCCCCCCCCCCCCCCCCCCCCCCCCCCCCCCCCCCCCCCCCCCCC
*  2008  4 17 21 30   .00000000                                                 
P  2  13079.374231  23104.506127  -3430.694037    191.484305                    
V  2  -1049.281512   4984.579137  30758.475529       .032354                    
P  3 -18591.535887 -11710.389130 -15413.423133    215.760353                    
V  3  19106.045491  -2285.834102 -21313.581987       .053868                    
P  4   4722.149047  24834.367943   7423.199245    -48.345380                    
V  4  -6991.301295  -7535.823046  29637.716004      -.078482                    
P  5  19020.272918 -11087.712630  14486.318241    751.900458                    
V  5  -7512.707307  17618.464880  23071.903192       .090945                    
P  6  -1275.362055 -15787.115654 -21159.043261    102.933316                    
V  6  27317.198877   1580.330858  -2834.606205       .116492                    
P  7 -11891.362214  10180.726502 -21473.559907    -67.463564                    
V  7 -11373.042470 -24729.862245  -5494.151137       .116295                    
P  8  -3172.337341  21081.753063 -15614.451996   -149.368831                    
V  8  -8644.375774 -17921.721098 -23015.214325      -.015329                    
P  9  17220.832207   6373.463169  18629.165209    120.427667                    
V  9   9607.529561  23002.043792 -16056.127124       .018612                    
P 10   9182.985266  12615.652997 -21590.679750      -.734598                    
V 10 -17100.131861  21070.162867   5394.196986      -.002820                    
P 11 -18863.302174   -930.575388  18628.673452     26.272426                    
V 11 -12028.998684 -21055.588764 -12795.781871      -.003588                    
P 12  19179.002171  -5320.722410  17635.639840   -359.016047                    
V 12 -11890.913620  18863.498124  18810.118573      -.001739                    
P 13 -19943.545046   7356.247262 -16021.660580    251.076455                    
V 13 -19643.067970  -4296.027517  22668.412854       .018632                    
P 14   3589.011457 -14243.336909  22223.777742   -276.299742                    
V 14  27607.179566   4043.395412  -1965.302736       .040047                    
P 15  24731.859296   7121.922981  -6555.293406    -98.708989                    
V 15  -8591.044912   1930.714866 -30205.591923      -.050156                    
P 16  -4849.519901 -16549.155775 -20068.077930    128.206456                    
V 16  16523.990771 -19713.560601  12408.227697      -.012313                    
P 17  -3609.701354  14884.965747  21728.583694     39.785557                    
V 17 -27275.579289  -3630.811357  -2203.000308      -.003731                    
P 18  17922.003871 -19076.261948  -3002.928034   -186.365492                    
V 18    220.363712   5375.557010 -31390.279675       .034459                    
P 19 -24667.313718  -8419.318066  -5494.008766     27.554934                    
V 19   7422.140705  -1382.271047 -30545.701992       .010502                    
P 20 -19609.208402   7684.873441  16035.015798    116.276551                    
V 20  10147.312223 -18107.498930  20976.281702      -.008215                    
P 21   9239.859524 -15144.257981 -19409.518623     66.746882                    
V 21  11206.635890  22745.824440 -12906.729152      -.010187                    
P 22   9225.809832 -22877.028986   9936.567752    210.586093                    
V 22  10090.124731  -7849.429653 -27911.216170       .001756                    
P 23 -26353.683608    -83.874972  -4290.069576    348.294842                    
V 23  -5028.491633  -2819.727994  31221.497893       .023907                    
P 24  15551.398217  -1570.825484 -21275.491514     87.130721                    
V 24   9139.042429  25916.182818   5006.187637       .030121                    
P 25 -14821.631734   3788.437917 -21329.235355    -86.484385                    
V 25 -13140.007532 -24685.170239   4844.739715      -.293321                    
P 26  22762.007607  10330.507211 -10243.658561    233.838360                    
V 26 -12098.560567   -846.842911 -28580.151955       .085604                    
P 27  -9031.458090  13234.776684 -20484.898964    182.101892                    
V 27 -13403.865954 -24113.908822  -9510.960985       .026714                    
P 28 -10496.527288  22879.753032   8295.158968    -17.943113                    
V 28  -8367.164680   6293.539418 -29627.056957      -.004592                    
P 29  22486.567022  -5978.969429 -12664.481606    -44.040441                    
V 29  15836.308103   4473.910260  25789.693451       .008735                    
P 30  18719.038913 -16414.530836   8768.458052     72.449171                    
V 30  -3961.048581  11387.504812  28783.647059       .016111                    
P 31  -6332.596773 -25009.738626   6279.068907    -16.831939                    
V 31   5464.987368   6026.060372  30626.501743      -.013686                    
P 32  -7473.360327 -14082.046296  21711.835986    270.964566                    
V 32  17748.797499 -19662.906376  -6612.346158       .065280                    
EOF
